     2.100          NAVIGATION                              RINEX VERSION / TYPE
fic2rin                                 02/04/2014 00:16:19 PGM / RUN BY / DATE
                                                            END OF HEADER
28 14  2  3  6  0  0.0  .329596921802D-03  .295585778076D-11  .000000000000D+00
     .890000000000D+02  .815625000000D+02  .407016953890D-08 -.312772706337D+01
     .411458313465D-05  .192691590637D-01  .734440982342D-05  .515366328430D+04
     .108000000000D+06  .292435288429D-06 -.172685564960D+01 -.689178705215D-07
     .985459779875D+00  .247156250000D+03 -.172808290182D+01 -.766531929132D-08
     .466805158594D-09  .100000000000D+01  .177800000000D+04  .000000000000D+00
     .240000000000D+01  .000000000000D+00 -.107102096081D-07  .890000000000D+02
     .100806000000D+06  .400000000000D+01
29 14  2  3  6  0  0.0  .508081633598D-03  .272848410532D-11  .000000000000D+00
     .101000000000D+03 -.469687500000D+02  .487948896459D-08 -.104480773310D+01
    -.235810875893D-05  .162128487136D-02  .380724668503D-05  .515375375938D+04
     .108000000000D+06 -.260770320892D-07 -.689836283159D+00 -.614672899246D-07
     .968408509987D+00  .306843750000D+03 -.100899875790D+01 -.847999608302D-08
    -.200365488884D-09  .100000000000D+01  .177800000000D+04  .000000000000D+00
     .340000000000D+01  .000000000000D+00 -.931322574615D-08  .101000000000D+03
     .100806000000D+06  .400000000000D+01
30 14  2  3  6  0  0.0 -.154231674969D-03  .795807864051D-12  .000000000000D+00
     .960000000000D+02  .628750000000D+02  .549094300553D-08 -.298820914108D+01
     .314600765705D-05  .656734546646D-02  .857003033161D-05  .515375302696D+04
     .108000000000D+06  .298023223877D-07 -.177463877020D+01 -.175088644028D-06
     .979890810625D+00  .225281250000D+03  .839842052415D+00 -.787211361942D-08
     .474662628747D-09  .100000000000D+01  .177800000000D+04  .000000000000D+00
     .340000000000D+01  .630000000000D+02 -.190921127796D-07  .960000000000D+02
     .100806000000D+06  .400000000000D+01
31 14  2  3  6  0  0.0  .332938507199D-03  .341060513165D-12  .000000000000D+00
     .590000000000D+02 -.347500000000D+02  .399302346831D-08 -.512349523174D+00
    -.204704701900D-05  .823857134674D-02  .109896063805D-04  .515376951218D+04
     .108000000000D+06 -.633299350739D-07 -.280707521368D+01 -.189989805222D-06
     .979483225556D+00  .175156250000D+03 -.667347374565D+00 -.787747098543D-08
    -.177864551630D-09  .100000000000D+01  .177800000000D+04  .000000000000D+00
     .240000000000D+01  .000000000000D+00 -.130385160446D-07  .590000000000D+02
     .100806000000D+06  .400000000000D+01
32 14  2  3  6  0  0.0 -.491899438202D-03  .602540239925D-11  .000000000000D+00
     .540000000000D+02  .700000000000D+02  .497699302602D-08  .945764249734D-01
     .360049307346D-05  .114926549140D-01  .787153840065D-05  .515351041985D+04
     .108000000000D+06  .145286321640D-06  .143867469595D+01 -.856816768646D-07
     .947765828880D+00  .221218750000D+03 -.189757475452D+00 -.850106838934D-08
     .385016037463D-09  .100000000000D+01  .177800000000D+04  .000000000000D+00
     .240000000000D+01  .000000000000D+00 -.325962901115D-08  .540000000000D+02
     .100806000000D+06  .400000000000D+01
29 14  2  3  5 59 44.0  .508080702275D-03  .272848410532D-11  .000000000000D+00
     .180000000000D+02 -.469687500000D+02  .487913180685D-08 -.104714158775D+01
    -.235810875893D-05  .162128428929D-02  .380724668503D-05  .515375375748D+04
     .107984000000D+06 -.260770320892D-07 -.689836132478D+00 -.614672899246D-07
     .968408521691D+00  .306843750000D+03 -.100899845508D+01 -.847963892528D-08
    -.200365488884D-09  .100000000000D+01  .177800000000D+04  .000000000000D+00
     .240000000000D+01  .000000000000D+00 -.931322574615D-08  .180000000000D+02
     .100956000000D+06  .400000000000D+01
20 14  2  3  5 59 44.0  .158415641636D-03  .329691829393D-11  .000000000000D+00
     .350000000000D+02  .715937500000D+02  .519985945216D-08 -.186875818688D+01
     .373087823391D-05  .595789507497D-02  .900216400623D-05  .515358775330D+04
     .107984000000D+06  .126659870148D-06  .129374758285D+01  .223517417908D-07
     .926854307316D+00  .188562500000D+03  .130960036149D+01 -.838106339065D-08
     .335013954676D-09  .100000000000D+01  .177800000000D+04  .000000000000D+00
     .240000000000D+01  .000000000000D+00 -.791624188423D-08  .350000000000D+02
     .102696000000D+06  .400000000000D+01
12 14  2  3  5 59 44.0  .184114556760D-03  .227373675443D-11  .000000000000D+00
     .200000000000D+01  .722812500000D+02  .419303179946D-08 -.816742249713D+00
     .378489494324D-05  .480785057880D-02  .847876071930D-05  .515368149948D+04
     .107984000000D+06  .141561031342D-06 -.175129032994D+01  .111758708954D-07
     .986339612455D+00  .231187500000D+03  .335349606234D+00 -.797747515100D-08
     .540379651839D-09  .100000000000D+01  .177800000000D+04  .000000000000D+00
     .240000000000D+01  .000000000000D+00 -.121071934700D-07  .200000000000D+01
     .103956000000D+06  .400000000000D+01
12 14  2  3  7 59 44.0  .184131320566D-03  .227373675443D-11  .000000000000D+00
     .300000000000D+01  .745625000000D+02  .415195866003D-08  .233474134369D+00
     .388547778130D-05  .480892276391D-02  .820867717266D-05  .515368356133D+04
     .115184000000D+06  .949949026108D-07 -.175134790747D+01  .875443220139D-07
     .986343272676D+00  .238781250000D+03  .335306385783D+00 -.801390523989D-08
     .522521765129D-09  .100000000000D+01  .177800000000D+04  .000000000000D+00
     .240000000000D+01  .000000000000D+00 -.121071934700D-07  .300000000000D+01
     .108006000000D+06  .400000000000D+01
20 14  2  3  7 59 44.0  .158439390361D-03  .329691829393D-11  .000000000000D+00
     .360000000000D+02  .664062500000D+02  .534986570052D-08 -.818725767672D+00
     .348314642906D-05  .595720135607D-02  .948458909988D-05  .515358518982D+04
     .115184000000D+06 -.372529029846D-07  .129368668304D+01  .782310962677D-07
     .926855915063D+00  .178406250000D+03  .130980703817D+01 -.855035615665D-08
     .321799118511D-09  .100000000000D+01  .177800000000D+04  .000000000000D+00
     .240000000000D+01  .000000000000D+00 -.791624188423D-08  .360000000000D+02
     .108006000000D+06  .400000000000D+01
 1 14  2  3  8  0  0.0  .104502774775D-03  .227373675443D-11  .000000000000D+00
     .150000000000D+02 -.693750000000D+02  .445411410316D-08  .115010418623D+01
    -.342912971973D-05  .268204021268D-02  .111572444439D-04  .515368942070D+04
     .115200000000D+06 -.242143869400D-07  .310090420876D+00  .186264514923D-07
     .961077864065D+00  .163187500000D+03  .391160678509D+00 -.799461872225D-08
    -.336799743347D-09  .100000000000D+01  .177800000000D+04  .000000000000D+00
     .240000000000D+01  .000000000000D+00  .838190317154D-08  .150000000000D+02
     .108006000000D+06  .400000000000D+01
 2 14  2  3  8  0  0.0  .476468820125D-03  .216004991671D-11  .000000000000D+00
     .810000000000D+02 -.627812500000D+02  .484591613757D-08  .185325843232D+01
    -.326707959175D-05  .131024991861D-01  .120047479868D-04  .515381190872D+04
     .115200000000D+06 -.337138772011D-06  .282971670609D+00  .540167093277D-07
     .939608925363D+00  .142156250000D+03 -.250045182672D+01 -.821141346690D-08
    -.358943522867D-09  .100000000000D+01  .177800000000D+04  .000000000000D+00
     .240000000000D+01  .000000000000D+00 -.200234353542D-07  .810000000000D+02
     .108006000000D+06  .400000000000D+01
 3 14  2  3  8  0  0.0  .320847611874D-03  .500222085975D-11  .000000000000D+00
     .820000000000D+02 -.139062500000D+02  .554237371925D-08  .206020052849D+01
    -.105239450932D-05  .167356226593D-01  .291503965855D-05  .515375998688D+04
     .115200000000D+06  .111758708954D-06 -.889962649854D+00 -.311061739922D-06
     .937071744114D+00  .309218750000D+03  .136279529591D+01 -.857642867125D-08
     .382158775590D-10  .100000000000D+01  .177800000000D+04  .000000000000D+00
     .340000000000D+01  .000000000000D+00 -.465661287308D-08  .820000000000D+02
     .108006000000D+06  .400000000000D+01
 4 14  2  3  8  0  0.0  .527454540133D-05  .341060513165D-12  .000000000000D+00
     .640000000000D+02 -.545000000000D+02  .488948938114D-08 -.104000048042D+01
    -.279210507870D-05  .106133010704D-01  .110529363155D-04  .515369218826D+04
     .115200000000D+06  .242143869400D-07  .299099331556D+00  .292435288429D-06
     .938625316301D+00  .154437500000D+03  .107723722417D+01 -.828605943335D-08
    -.330728061866D-09  .100000000000D+01  .177800000000D+04  .000000000000D+00
     .240000000000D+01  .000000000000D+00 -.605359673500D-08  .640000000000D+02
     .108006000000D+06  .400000000000D+01
 5 14  2  3  8  0  0.0 -.390041153878D-03  .147792889038D-11  .000000000000D+00
     .940000000000D+02  .806562500000D+02  .482770109313D-08 -.218677114887D+01
     .414438545704D-05  .352126965299D-02  .888854265213D-05  .515378895378D+04
     .115200000000D+06 -.540167093277D-07  .134975537958D+01  .484287738800D-07
     .947317792663D+00  .203187500000D+03  .374374346011D+00 -.819748431527D-08
     .399302346831D-09  .100000000000D+01  .177800000000D+04  .000000000000D+00
     .240000000000D+01  .000000000000D+00 -.102445483208D-07  .940000000000D+02
     .108006000000D+06  .400000000000D+01
 6 14  2  3  8  0  0.0  .261139590293D-03  .147792889038D-10  .000000000000D+00
     .105000000000D+03 -.246250000000D+02  .545879880945D-08 -.235931400061D+01
    -.126101076603D-05  .851349614095D-02  .365264713764D-05  .515367689705D+04
     .115200000000D+06 -.230967998505D-06 -.808597699077D+00 -.745058059692D-07
     .943620716333D+00  .302250000000D+03 -.181265429107D+00 -.866964683988D-08
     .321441960776D-11  .100000000000D+01  .177800000000D+04  .000000000000D+00
     .240000000000D+01  .000000000000D+00 -.512227416039D-08  .105000000000D+03
     .108006000000D+06  .400000000000D+01
